[{"OBJECT_NAME":"YAOGAN-16 01C","OBJECT_ID":"2012-066C","EPOCH":"2026-03-09T23:09:27.258912","MEAN_MOTION":13.45493604,"ECCENTRICITY":0.04277831,"INCLINATION":63.3553,"RA_OF_ASC_NODE":185.7575,"ARG_OF_PERICENTER":25.6135,"MEAN_ANOMALY":336.542,"EPHEMERIS_TYPE":0,"CLASSIFICATION_TYPE":"U","NORAD_CAT_ID":39013,"ELEMENT_SET_NO":999,"REV_AT_EPOCH":65278,"BSTAR":9.6966797e-5,"MEAN_MOTION_DOT":9.0e-8,"MEAN_MOTION_DDOT":0},{"OBJECT_NAME":"SL-14 DEB","OBJECT_ID":"1991-056BS","EPOCH":"2026-03-09T03:30:45.228384","MEAN_MOTION":13.46401403,"ECCENTRICITY":0.01088466,"INCLINATION":82.549,"RA_OF_ASC_NODE":136.8851,"ARG_OF_PERICENTER":61.4066,"MEAN_ANOMALY":299.7973,"EPHEMERIS_TYPE":0,"CLASSIFICATION_TYPE":"U","NORAD_CAT_ID":45328,"ELEMENT_SET_NO":999,"REV_AT_EPOCH":29530,"BSTAR":0.00173911,"MEAN_MOTION_DOT":1.097e-5,"MEAN_MOTION_DDOT":0}]
